ONEWEB-0336             
1 49202U 21083S   26165.13537809 -.00000019  00000+0 -85927-4 0  9993
2 49202  87.8950 320.8354 0002230  93.4353 266.7031 13.13470210230513
ONEWEB-0337             
1 49203U 21083T   26165.14540040 -.00000227  00000+0 -65750-3 0  9998
2 49203  87.8947 320.8394 0002019  98.3204 261.8154 13.13470288230515
ONEWEB-0338             
1 49204U 21083U   26165.31386623  .00000086  00000+0  18022-3 0  9994
2 49204  87.9181 275.0215 0001661 102.7884 257.3435 13.20773961236437
ONEWEB-0339             
1 49205U 21083V   26165.15399695 -.00000289  00000+0 -82663-3 0  9999
2 49205  87.8948 320.8306 0001633 103.2217 256.9094 13.13470130230493
ONEWEB-0340             
1 49206U 21083W   26165.17434289  .00000044  00000+0  77860-4 0  9992
2 49206  87.9168 336.0546 0001982  91.3429 268.7931 13.18686238229574
ONEWEB-0341             
1 49207U 21083X   26165.18108945  .00000095  00000+0  20747-3 0  9998
2 49207  87.9162 336.0565 0002177 102.9448 257.1928 13.18686176229598
ONEWEB-0342             
1 49208U 21083Y   26165.24484400  .00000108  00000+0  23456-3 0  9994
2 49208  87.9191 275.0230 0001934 102.8883 257.2467 13.20771614236394
ONEWEB-0343             
1 49209U 21083Z   26165.18952403  .00000061  00000+0  12139-3 0  9995
2 49209  87.9165 336.0537 0001576 103.5503 256.5804 13.18686274229644
ONEWEB-0344             
1 49210U 21083AA  26165.14891218 -.00000293  00000+0 -83732-3 0  9995
2 49210  87.8939 320.8457 0002112 103.7346 256.4019 13.13471610230493
ONEWEB-0345             
1 49211U 21083AB  26164.98809513 -.00000221  00000+0 -64115-3 0  9999
2 49211  87.8959 320.8581 0002033 103.2818 256.8538 13.13470191230487
ONEWEB-0346             
1 49212U 21083AC  26165.18614854  .00000051  00000+0  97113-4 0  9999
2 49212  87.9158 336.0547 0002390  81.9464 278.1939 13.18686000229580
ONEWEB-0348             
1 49213U 21083AD  26165.31049787  .00000068  00000+0  13574-3 0  9998
2 49213  87.9194 275.0138 0002479  98.2386 261.9029 13.20770718236436
ONEWEB-0350             
1 49214U 21083AE  26165.15588990 -.00000360  00000+0 -10279-2 0  9990
2 49214  87.8956 320.8289 0002083 100.1467 259.9897 13.12943193230537
ONEWEB-0351             
1 49215U 21083AF  26165.22786046  .00000041  00000+0  68191-4 0  9993
2 49215  87.9194 275.0289 0001899 126.7290 233.4018 13.20770122236386
ONEWEB-0352             
1 49216U 21083AG  26165.13030361  .00000068  00000+0  15223-3 0  9992
2 49216  87.8951 320.8413 0001591 107.7410 252.3893 13.13469848230621
ONEWEB-0354             
1 49217U 21083AH  26165.25494675  .00000157  00000+0  35439-3 0  9998
2 49217  87.9194 275.0226 0002390 101.5956 258.5446 13.20773188236429
ONEWEB-0355             
1 49218U 21083AJ  26164.93068525 -.00000197  00000+0 -57495-3 0  9996
2 49218  87.8945 320.8823 0001842 103.9768 256.1566 13.13470234230477
ONEWEB-0357             
1 49219U 21083AK  26165.25157895  .00000133  00000+0  29486-3 0  9999
2 49219  87.9193 275.0174 0001922 106.4690 253.6655 13.20772964236420
ONEWEB-0332             
1 49279U 21090A   26165.25003396  .00000198  00000+0  49967-3 0  9996
2 49279  87.8959 290.2944 0001677 100.2980 259.8339 13.14501774227193
ONEWEB-0347             
1 49280U 21090B   26165.31723465  .00000117  00000+0  25659-3 0  9994
2 49280  87.9192 275.0125 0001730  98.9097 261.2232 13.20771205230669
ONEWEB-0349             
1 49281U 21090C   26165.27346760  .00000090  00000+0  18982-3 0  9990
2 49281  87.9195 275.0219 0001995 101.4103 258.7254 13.20772171229440
ONEWEB-0353             
1 49282U 21090D   26165.31823432  .00000045  00000+0  85977-4 0  9991
2 49282  87.8962 290.2764 0001639  98.7144 261.4171 13.14503169227207
ONEWEB-0356             
1 49283U 21090E   26165.27177850  .00000063  00000+0  12413-3 0  9997
2 49283  87.9194 275.0155 0002152  78.3853 281.7522 13.20773102229449
ONEWEB-0358             
1 49284U 21090F   26165.22774364  .00000033  00000+0  48525-4 0  9997
2 49284  87.9194 275.0291 0002108  96.1682 263.9692 13.20236929230162
ONEWEB-0359             
1 49285U 21090G   26165.22295663  .00000042  00000+0  70601-4 0  9998
2 49285  87.9192 275.0250 0002249 100.3676 259.7711 13.20773227230143
ONEWEB-0360             
1 49286U 21090H   26165.28860524  .00001100  00000+0  26726-2 0  9992
2 49286  87.9192 275.0182 0002079 102.4131 257.7235 13.20782228229461
ONEWEB-0361             
1 49287U 21090J   26165.27009185  .00000088  00000+0  18343-3 0  9991
2 49287  87.9195 275.0202 0002093  99.0151 261.1219 13.20770753229918
ONEWEB-0362             
1 49288U 21090K   26165.14455160 -.00000055  00000+0 -16891-3 0  9998
2 49288  87.9166 305.5841 0001891 106.7858 253.3483 13.19724370226511
ONEWEB-0363             
1 49289U 21090L   26165.28523910  .00000051  00000+0  92783-4 0  9992
2 49289  87.9194 275.0175 0002071  91.4265 268.7105 13.20770585229927
ONEWEB-0364             
1 49290U 21090M   26165.24820863  .00000095  00000+0  20082-3 0  9997
2 49290  87.9190 275.0328 0002000 101.0025 259.1334 13.20771456231052
