OBJECT_NAME,OBJECT_ID,EPOCH,MEAN_MOTION,ECCENTRICITY,INCLINATION,RA_OF_ASC_NODE,ARG_OF_PERICENTER,MEAN_ANOMALY,EPHEMERIS_TYPE,CLASSIFICATION_TYPE,NORAD_CAT_ID,ELEMENT_SET_NO,REV_AT_EPOCH,BSTAR,MEAN_MOTION_DOT,MEAN_MOTION_DDOT
ONEWEB-0336,2021-083S,2026-06-14T03:14:56.666976,13.13470210,.00022308,87.8950,320.8354,93.4353,266.7031,0,U,49202,999,23051,-.85927189E-4,-.19E-6,0
ONEWEB-0337,2021-083T,2026-06-14T03:29:22.594560,13.13470288,.00020198,87.8947,320.8394,98.3204,261.8154,0,U,49203,999,23051,-.65749842E-3,-.227E-5,0
ONEWEB-0338,2021-083U,2026-06-14T07:31:58.042272,13.20773961,.00016619,87.9181,275.0215,102.7884,257.3435,0,U,49204,999,23643,.18021895E-3,.86E-6,0
ONEWEB-0339,2021-083V,2026-06-14T03:41:45.336480,13.13470130,.00016339,87.8948,320.8306,103.2217,256.9094,0,U,49205,999,23049,-.82662766E-3,-.289E-5,0
ONEWEB-0340,2021-083W,2026-06-14T04:11:03.225696,13.18686238,.00019824,87.9168,336.0546,91.3429,268.7931,0,U,49206,999,22957,.7786023E-4,.44E-6,0
ONEWEB-0341,2021-083X,2026-06-14T04:20:46.128480,13.18686176,.00021774,87.9162,336.0565,102.9448,257.1928,0,U,49207,999,22959,.20747228E-3,.95E-6,0
ONEWEB-0342,2021-083Y,2026-06-14T05:52:34.521600,13.20771614,.00019342,87.9191,275.0230,102.8883,257.2467,0,U,49208,999,23639,.23455587E-3,.108E-5,0
ONEWEB-0343,2021-083Z,2026-06-14T04:32:54.876192,13.18686274,.00015761,87.9165,336.0537,103.5503,256.5804,0,U,49209,999,22964,.12138832E-3,.61E-6,0
ONEWEB-0344,2021-083AA,2026-06-14T03:34:26.012352,13.13471610,.00021123,87.8939,320.8457,103.7346,256.4019,0,U,49210,999,23049,-.83732232E-3,-.293E-5,0
ONEWEB-0345,2021-083AB,2026-06-13T23:42:51.419232,13.13470191,.00020335,87.8959,320.8581,103.2818,256.8538,0,U,49211,999,23048,-.64115286E-3,-.221E-5,0
ONEWEB-0346,2021-083AC,2026-06-14T04:28:03.233856,13.18686000,.00023904,87.9158,336.0547,81.9464,278.1939,0,U,49212,999,22958,.97112538E-4,.51E-6,0
ONEWEB-0348,2021-083AD,2026-06-14T07:27:07.015968,13.20770718,.00024792,87.9194,275.0138,98.2386,261.9029,0,U,49213,999,23643,.13573877E-3,.68E-6,0
ONEWEB-0350,2021-083AE,2026-06-14T03:44:28.887360,13.12943193,.00020838,87.8956,320.8289,100.1467,259.9897,0,U,49214,999,23053,-.1027902E-2,-.36E-5,0
ONEWEB-0351,2021-083AF,2026-06-14T05:28:07.143744,13.20770122,.00018999,87.9194,275.0289,126.7290,233.4018,0,U,49215,999,23638,.68190803E-4,.41E-6,0
ONEWEB-0352,2021-083AG,2026-06-14T03:07:38.231904,13.13469848,.00015914,87.8951,320.8413,107.7410,252.3893,0,U,49216,999,23062,.15222778E-3,.68E-6,0
ONEWEB-0354,2021-083AH,2026-06-14T06:07:07.399200,13.20773188,.00023906,87.9194,275.0226,101.5956,258.5446,0,U,49217,999,23642,.35438835E-3,.157E-5,0
ONEWEB-0355,2021-083AJ,2026-06-13T22:20:11.205600,13.13470234,.0001842,87.8945,320.8823,103.9768,256.1566,0,U,49218,999,23047,-.57495E-3,-.197E-5,0
ONEWEB-0357,2021-083AK,2026-06-14T06:02:16.421280,13.20772964,.00019222,87.9193,275.0174,106.4690,253.6655,0,U,49219,999,23642,.29486082E-3,.133E-5,0
ONEWEB-0332,2021-090A,2026-06-14T06:00:02.934144,13.14501774,.00016775,87.8959,290.2944,100.2980,259.8339,0,U,49279,999,22719,.49966976E-3,.198E-5,0
ONEWEB-0347,2021-090B,2026-06-14T07:36:49.073760,13.20771205,.00017307,87.9192,275.0125,98.9097,261.2232,0,U,49280,999,23066,.2565854E-3,.117E-5,0
ONEWEB-0349,2021-090C,2026-06-14T06:33:47.600640,13.20772171,.00019957,87.9195,275.0219,101.4103,258.7254,0,U,49281,999,22944,.18982459E-3,.9E-6,0
ONEWEB-0353,2021-090D,2026-06-14T07:38:15.445248,13.14503169,.00016391,87.8962,290.2764,98.7144,261.4171,0,U,49282,999,22720,.85977068E-4,.45E-6,0
ONEWEB-0356,2021-090E,2026-06-14T06:31:21.662400,13.20773102,.00021523,87.9194,275.0155,78.3853,281.7522,0,U,49283,999,22944,.12413444E-3,.63E-6,0
ONEWEB-0358,2021-090F,2026-06-14T05:27:57.050496,13.20236929,.00021089,87.9194,275.0291,96.1682,263.9692,0,U,49284,999,23016,.48524963E-4,.33E-6,0
ONEWEB-0359,2021-090G,2026-06-14T05:21:03.452832,13.20773227,.00022491,87.9192,275.0250,100.3676,259.7711,0,U,49285,999,23014,.70601239E-4,.42E-6,0
ONEWEB-0360,2021-090H,2026-06-14T06:55:35.492736,13.20782228,.00020799,87.9192,275.0182,102.4131,257.7235,0,U,49286,999,22946,.26726102E-2,.11E-4,0
ONEWEB-0361,2021-090J,2026-06-14T06:28:55.935840,13.20770753,.00020933,87.9195,275.0202,99.0151,261.1219,0,U,49287,999,22991,.18342856E-3,.88E-6,0
ONEWEB-0362,2021-090K,2026-06-14T03:28:09.258240,13.19724370,.00018912,87.9166,305.5841,106.7858,253.3483,0,U,49288,999,22651,-.16891449E-3,-.55E-6,0
ONEWEB-0363,2021-090L,2026-06-14T06:50:44.658240,13.20770585,.00020716,87.9194,275.0175,91.4265,268.7105,0,U,49289,999,22992,.92782923E-4,.51E-6,0
ONEWEB-0364,2021-090M,2026-06-14T05:57:25.225632,13.20771456,.00020006,87.9190,275.0328,101.0025,259.1334,0,U,49290,999,23105,.20081634E-3,.95E-6,0
